{
  "norad_id": 66865,
  "name": "STARLINK-36117",
  "history": [
    {
      "epoch": "2026-03-28T17:53:27.989376",
      "apogee_km": 484.1332817602488,
      "perigee_km": 481.7826706214046,
      "latitude_deg": -39.33826101912012,
      "longitude_deg": -141.9355673599057,
      "semi_major_axis_km": 6861.094976190826,
      "eccentricity": 0.0001713,
      "inclination_deg": 42.9997,
      "raan_deg": 235.5243,
      "arg_perigee_deg": 265.3161,
      "mean_anomaly_deg": 94.7495,
      "mean_motion_rev_day": 15.27610431
    }
  ]
}